{"type": "FeatureCollection", "features": [{"type": "Feature", "properties": {"shapeID": "31243875B86288540800273", "shapeName": "Banjul"}, "geometry": {"type": "Polygon", "coordinates": [[[-16.60155, 13.46489], [-16.58352, 13.46264], [-16.57192, 13.45654], [-16.57028, 13.45174], [-16.57357, 13.44317], [-16.5785, 13.44333], [-16.57876, 13.4458], [-16.58572, 13.44847], [-16.58956, 13.44764], [-16.59108, 13.44881], [-16.60392, 13.44325], [-16.60643, 13.44381], [-16.60877, 13.447], [-16.61218, 13.44653], [-16.61271, 13.44829], [-16.60974, 13.45052], [-16.61235, 13.45347], [-16.60724, 13.45678], [-16.60747, 13.45976], [-16.61135, 13.46017], [-16.61859, 13.46666], [-16.62703, 13.46608], [-16.62713, 13.46785], [-16.61639, 13.47361], [-16.61299, 13.47218], [-16.6112, 13.4691], [-16.60155, 13.46489]]]}}, {"type": "Feature", "properties": {"shapeID": "31243875B74768451122912", "shapeName": "Basse"}, "geometry": {"type": "MultiPolygon", "coordinates": [[[[-14.52094, 13.3818], [-14.5052, 13.38141], [-14.49805, 13.3852], [-14.50048, 13.39427], [-14.50083, 13.4053], [-14.5046, 13.41202], [-14.50446, 13.42065], [-14.48871, 13.40794], [-14.48404, 13.39929], [-14.48219, 13.38789], [-14.47862, 13.38531], [-14.47562, 13.38567], [-14.46546, 13.39797], [-14.45323, 13.40878], [-14.4429, 13.40803], [-14.43784, 13.40526], [-14.42791, 13.39586], [-14.42495, 13.38023], [-14.41905, 13.37517], [-14.40498, 13.36999], [-14.38602, 13.37178], [-14.38209, 13.36405], [-14.3795, 13.351], [-14.37391, 13.33646], [-14.37035, 13.33278], [-14.3593, 13.32668], [-14.34786, 13.32371], [-14.31707, 13.32657], [-14.30158, 13.32992], [-14.29781, 13.33488], [-14.28893, 13.35433], [-14.28674, 13.36636], [-14.28016, 13.368], [-14.26554, 13.36226], [-14.25355, 13.35506], [-14.24384, 13.33739], [-14.22546, 13.33531], [-14.22004, 13.32776], [-14.21707, 13.31727], [-14.21276, 13.31469], [-14.20825, 13.31669], [-14.20692, 13.32077], [-14.20852, 13.33592], [-14.20527, 13.34466], [-14.2006, 13.34743], [-14.19174, 13.34829], [-14.18858, 13.35048], [-14.18677, 13.35445], [-14.18866, 13.37313], [-14.18478, 13.38686], [-14.18177, 13.38817], [-14.17081, 13.38755], [-14.16268, 13.39326], [-14.16087, 13.39766], [-14.15936, 13.42096], [-14.15724, 13.42463], [-14.15243, 13.4252], [-14.14464, 13.42106], [-14.14061, 13.41399], [-14.15015, 13.3927], [-14.15039, 13.38675], [-14.14815, 13.38292], [-14.14155, 13.38245], [-14.13372, 13.38787], [-14.13035, 13.38809], [-14.12628, 13.38608], [-14.11682, 13.37616], [-14.11214, 13.37427], [-14.10734, 13.37496], [-14.10456, 13.37812], [-14.10431, 13.38177], [-14.11162, 13.40149], [-14.11195, 13.41114], [-14.11, 13.41842], [-14.10137, 13.42739], [-14.08821, 13.44628], [-14.07507, 13.4547], [-14.06462, 13.4536], [-14.05707, 13.44958], [-14.05095, 13.43209], [-14.05258, 13.41469], [-14.05114, 13.40161], [-14.04921, 13.39778], [-14.03889, 13.38745], [-14.03363, 13.38758], [-13.99756, 13.41165], [-13.99563, 13.41763], [-14.00116, 13.43738], [-14.00284, 13.44756], [-14.00168, 13.45055], [-13.97725, 13.46531], [-13.95138, 13.47562], [-13.94603, 13.47323], [-13.93387, 13.4552], [-13.92802, 13.43539], [-13.92108, 13.42038], [-13.90685, 13.40896], [-13.89841, 13.40677], [-13.8891, 13.40694], [-13.8871, 13.40759], [-13.88419, 13.41365], [-13.8813, 13.43848], [-13.8733, 13.44235], [-13.8686, 13.45231], [-13.86969, 13.45579], [-13.88711, 13.47713], [-13.89069, 13.49418], [-13.8869, 13.49915], [-13.87002, 13.5045], [-13.85824, 13.51096], [-13.85358, 13.51159], [-13.83454, 13.50434], [-13.83079, 13.50085], [-13.83128, 13.49174], [-13.82355, 13.48454], [-13.81448, 13.48125], [-13.81361, 13.47669], [-13.8236, 13.47543], [-13.82671, 13.47241], [-13.82987, 13.46266], [-13.827, 13.45896], [-13.82703, 13.45288], [-13.82528, 13.44853], [-13.82173, 13.4483], [-13.81773, 13.45175], [-13.81664, 13.44784], [-13.81333, 13.44435], [-13.79382, 13.44491], [-13.79112, 13.4309], [-13.79711, 13.38428], [-13.82187, 13.35208], [-13.82362, 13.34577], [-13.82841, 13.34023], [-13.8518, 13.32519], [-13.87927, 13.3189], [-13.88832, 13.31981], [-13.89318, 13.31659], [-13.91025, 13.31891], [-13.94441, 13.31872], [-13.97782, 13.30611], [-14.0316, 13.29348], [-14.06881, 13.29041], [-14.08095, 13.28447], [-14.09431, 13.28246], [-14.11921, 13.28284], [-14.12302, 13.27157], [-14.13251, 13.25411], [-14.133, 13.23442], [-14.13684, 13.23198], [-14.14674, 13.23235], [-14.15778, 13.23006], [-14.18484, 13.21912], [-14.20191, 13.21807], [-14.20674, 13.21936], [-14.20707, 13.21689], [-14.22226, 13.21878], [-14.23987, 13.22618], [-14.24812, 13.22768], [-14.25804, 13.23708], [-14.26684, 13.24152], [-14.2749, 13.24264], [-14.28148, 13.23972], [-14.30666, 13.2337], [-14.32183, 13.23266], [-14.34603, 13.2342], [-14.39676, 13.24214], [-14.42242, 13.25837], [-14.46278, 13.29421], [-14.48642, 13.29297], [-14.5003, 13.29576], [-14.5318, 13.3107], [-14.54614, 13.32167], [-14.52654, 13.36262], [-14.52623, 13.37778], [-14.52782, 13.38429], [-14.52213, 13.38053], [-14.52094, 13.3818]]], [[[-13.88555, 13.54755], [-13.86848, 13.52221], [-13.85895, 13.51261], [-13.87044, 13.50549], [-13.88586, 13.50133], [-13.8919, 13.49419], [-13.88907, 13.47718], [-13.87972, 13.46703], [-13.87021, 13.45321], [-13.87061, 13.4488], [-13.8742, 13.4433], [-13.8789, 13.44167], [-13.88343, 13.4371], [-13.8832, 13.42671], [-13.8859, 13.41147], [-13.8876, 13.40891], [-13.88985, 13.40763], [-13.90149, 13.40823], [-13.90992, 13.41158], [-13.9189, 13.41988], [-13.92653, 13.43462], [-13.93393, 13.45836], [-13.94475, 13.47402], [-13.94737, 13.47606], [-13.95169, 13.47644], [-13.97871, 13.46646], [-14.00014, 13.45376], [-14.00334, 13.45046], [-14.00374, 13.44661], [-13.99692, 13.41497], [-14.02959, 13.39111], [-14.0388, 13.38876], [-14.04833, 13.39854], [-14.05075, 13.40443], [-14.05127, 13.41509], [-14.04932, 13.43272], [-14.05471, 13.448], [-14.06351, 13.45483], [-14.07524, 13.45588], [-14.0869, 13.44949], [-14.10134, 13.42869], [-14.11171, 13.41825], [-14.1129, 13.40024], [-14.10565, 13.38037], [-14.10811, 13.37578], [-14.11524, 13.37654], [-14.12496, 13.38687], [-14.13171, 13.38983], [-14.143, 13.38344], [-14.1475, 13.38364], [-14.14955, 13.3875], [-14.14916, 13.39228], [-14.14009, 13.41026], [-14.13969, 13.41651], [-14.14268, 13.42093], [-14.15073, 13.4261], [-14.15505, 13.42667], [-14.15881, 13.42447], [-14.16089, 13.41952], [-14.16304, 13.39564], [-14.16625, 13.39124], [-14.17151, 13.38868], [-14.18277, 13.38927], [-14.18549, 13.38803], [-14.18891, 13.37927], [-14.19006, 13.37082], [-14.18805, 13.35391], [-14.18919, 13.35134], [-14.20102, 13.34843], [-14.20591, 13.34551], [-14.20912, 13.34001], [-14.20815, 13.31988], [-14.21248, 13.31585], [-14.21529, 13.31696], [-14.21845, 13.32708], [-14.22406, 13.33573], [-14.23043, 13.33796], [-14.24244, 13.33818], [-14.24692, 13.34462], [-14.24878, 13.35161], [-14.25477, 13.35769], [-14.26826, 13.36527], [-14.28175, 13.36926], [-14.28771, 13.3675], [-14.28947, 13.35733], [-14.29877, 13.337], [-14.3042, 13.33044], [-14.34925, 13.32519], [-14.36035, 13.32875], [-14.37181, 13.33535], [-14.37783, 13.34978], [-14.38147, 13.36767], [-14.38463, 13.37235], [-14.38926, 13.37306], [-14.40391, 13.37091], [-14.41646, 13.37518], [-14.42208, 13.37915], [-14.42438, 13.38353], [-14.42752, 13.39768], [-14.43703, 13.40618], [-14.44987, 13.41073], [-14.45666, 13.40834], [-14.47678, 13.38746], [-14.47996, 13.38719], [-14.48282, 13.39977], [-14.48641, 13.40699], [-14.50248, 13.42038], [-14.50406, 13.42349], [-14.50446, 13.44342], [-14.50912, 13.45976], [-14.50522, 13.45904], [-14.50232, 13.4654], [-14.49942, 13.46737], [-14.48874, 13.46778], [-14.47587, 13.47312], [-14.47383, 13.4799], [-14.48181, 13.49624], [-14.47878, 13.49864], [-14.473, 13.49962], [-14.46865, 13.50625], [-14.4607, 13.50977], [-14.45809, 13.514], [-14.45143, 13.51922], [-14.44838, 13.52713], [-14.44506, 13.52641], [-14.44102, 13.5216], [-14.42793, 13.49994], [-14.42404, 13.49697], [-14.39539, 13.48764], [-14.36669, 13.4699], [-14.35162, 13.46357], [-14.34614, 13.45903], [-14.33013, 13.4515], [-14.32681, 13.45149], [-14.32565, 13.45304], [-14.32045, 13.45317], [-14.28858, 13.46192], [-14.24352, 13.46292], [-14.23947, 13.46729], [-14.23099, 13.486], [-14.2258, 13.49379], [-14.21336, 13.50699], [-14.18532, 13.5238], [-14.15714, 13.5272], [-14.13883, 13.52595], [-14.10888, 13.54734], [-14.06866, 13.55345], [-14.03221, 13.55551], [-14.01134, 13.56186], [-14.00349, 13.57313], [-13.98543, 13.57949], [-13.96254, 13.5726], [-13.90914, 13.56309], [-13.89185, 13.55313], [-13.88555, 13.54755]]]]}}, {"type": "Feature", "properties": {"shapeID": "31243875B88426941804625", "shapeName": "Brikama"}, "geometry": {"type": "Polygon", "coordinates": [[[-16.63639, 13.40458], [-16.63277, 13.39928], [-16.62969, 13.40062], [-16.62694, 13.3994], [-16.62517, 13.40158], [-16.62216, 13.40151], [-16.62099, 13.39891], [-16.62353, 13.39373], [-16.62121, 13.39058], [-16.62246, 13.38704], [-16.6157, 13.3853], [-16.61775, 13.38257], [-16.61301, 13.37963], [-16.58565, 13.38596], [-16.58413, 13.37851], [-16.57374, 13.36371], [-16.57147, 13.35766], [-16.57201, 13.35159], [-16.57496, 13.34408], [-16.57795, 13.34132], [-16.57911, 13.33362], [-16.57512, 13.32942], [-16.57132, 13.32079], [-16.56945, 13.31997], [-16.56746, 13.31235], [-16.56061, 13.30646], [-16.55648, 13.29932], [-16.55085, 13.29636], [-16.54422, 13.29557], [-16.54267, 13.29341], [-16.52871, 13.29017], [-16.52413, 13.29169], [-16.51521, 13.2915], [-16.50686, 13.28872], [-16.4822, 13.28653], [-16.45913, 13.27992], [-16.4487, 13.27099], [-16.44004, 13.27204], [-16.43034, 13.27043], [-16.42678, 13.27095], [-16.42645, 13.27295], [-16.41489, 13.27251], [-16.38298, 13.28118], [-16.37727, 13.27879], [-16.37707, 13.27263], [-16.37433, 13.26982], [-16.36642, 13.26928], [-16.36182, 13.26731], [-16.36181, 13.26508], [-16.35413, 13.27559], [-16.3528, 13.27992], [-16.34169, 13.28406], [-16.33307, 13.29327], [-16.31061, 13.29055], [-16.28247, 13.30568], [-16.2671, 13.30917], [-16.25252, 13.31724], [-16.22126, 13.32579], [-16.21148, 13.31612], [-16.20206, 13.30206], [-16.20458, 13.28244], [-16.20957, 13.26886], [-16.20875, 13.25585], [-16.20367, 13.24946], [-16.19231, 13.25996], [-16.16972, 13.26941], [-16.15483, 13.28478], [-16.13917, 13.29603], [-16.12083, 13.29501], [-16.11408, 13.29284], [-16.1107, 13.28992], [-16.11086, 13.28442], [-16.11254, 13.28222], [-16.11646, 13.28019], [-16.12506, 13.2796], [-16.12636, 13.27794], [-16.1147, 13.26462], [-16.09593, 13.24949], [-16.09199, 13.24841], [-16.08171, 13.2501], [-16.07649, 13.25434], [-16.07706, 13.25635], [-16.08418, 13.25815], [-16.08906, 13.26125], [-16.09095, 13.26692], [-16.08987, 13.27462], [-16.0839, 13.27959], [-16.07586, 13.28036], [-16.07061, 13.27846], [-16.06911, 13.27645], [-16.06945, 13.2682], [-16.06775, 13.26509], [-16.06419, 13.26328], [-16.0597, 13.26403], [-16.0517, 13.27432], [-16.04535, 13.27636], [-16.03094, 13.27606], [-16.02611, 13.28286], [-16.01789, 13.28765], [-16.0166, 13.29242], [-16.01157, 13.29684], [-16.00577, 13.29613], [-16.00519, 13.29137], [-15.99956, 13.28718], [-15.99657, 13.28975], [-15.9938, 13.29728], [-15.99118, 13.29802], [-15.98406, 13.29622], [-15.97528, 13.29882], [-15.96757, 13.28895], [-15.9657, 13.28841], [-15.96123, 13.29319], [-15.95581, 13.29449], [-15.95142, 13.29288], [-15.95274, 13.28598], [-15.94763, 13.2816], [-15.94266, 13.27121], [-15.93742, 13.27167], [-15.93307, 13.26964], [-15.92739, 13.27054], [-15.92515, 13.27172], [-15.92502, 13.27765], [-15.91888, 13.27724], [-15.91361, 13.26978], [-15.91361, 13.26729], [-15.91629, 13.26508], [-15.91401, 13.25673], [-15.90953, 13.25865], [-15.90055, 13.25736], [-15.89697, 13.2606], [-15.89729, 13.26559], [-15.89535, 13.26765], [-15.88846, 13.26562], [-15.88173, 13.26799], [-15.8783, 13.27108], [-15.87952, 13.27664], [-15.87773, 13.28046], [-15.87504, 13.2812], [-15.86875, 13.27888], [-15.86604, 13.27464], [-15.86916, 13.26928], [-15.86811, 13.26825], [-15.86122, 13.26681], [-15.85929, 13.27121], [-15.8527, 13.27094], [-15.8503, 13.26714], [-15.85267, 13.262], [-15.8504, 13.25482], [-15.84816, 13.25513], [-15.84413, 13.25924], [-15.83843, 13.25413], [-15.83154, 13.25298], [-15.82914, 13.25314], [-15.82916, 13.25768], [-15.82528, 13.26062], [-15.80746, 13.25892], [-15.80566, 13.25541], [-15.80998, 13.25173], [-15.8101, 13.24249], [-15.80217, 13.24121], [-15.80121, 13.16583], [-15.92306, 13.1659], [-15.92717, 13.16383], [-15.9306, 13.16587], [-16.27579, 13.16551], [-16.63707, 13.16764], [-16.64625, 13.16758], [-16.65588, 13.1638], [-16.66314, 13.16794], [-16.67896, 13.16842], [-16.68165, 13.1653], [-16.68544, 13.16897], [-16.69011, 13.16656], [-16.68932, 13.16132], [-16.69115, 13.15983], [-16.69767, 13.15921], [-16.69911, 13.16183], [-16.70138, 13.16247], [-16.69924, 13.15617], [-16.70139, 13.15271], [-16.70423, 13.15195], [-16.70618, 13.15588], [-16.70886, 13.1552], [-16.70717, 13.14779], [-16.69777, 13.14343], [-16.69683, 13.14024], [-16.6988, 13.13506], [-16.70279, 13.13102], [-16.7058, 13.13075], [-16.7085, 13.13409], [-16.71, 13.13302], [-16.70858, 13.12741], [-16.70956, 13.12347], [-16.7123, 13.12083], [-16.7204, 13.11856], [-16.72258, 13.11936], [-16.7231, 13.12207], [-16.72536, 13.12213], [-16.72506, 13.11615], [-16.7201, 13.11184], [-16.71752, 13.11325], [-16.71632, 13.11022], [-16.72583, 13.10639], [-16.72986, 13.108], [-16.7304, 13.11407], [-16.73574, 13.11198], [-16.73581, 13.10325], [-16.73169, 13.10114], [-16.7311, 13.09899], [-16.72666, 13.09913], [-16.72564, 13.09684], [-16.72753, 13.09256], [-16.73329, 13.09039], [-16.73034, 13.08746], [-16.72859, 13.08186], [-16.73221, 13.07404], [-16.7363, 13.07238], [-16.74158, 13.07374], [-16.74423, 13.07003], [-16.73663, 13.04688], [-16.73804, 13.04347], [-16.73947, 13.04366], [-16.74467, 13.05803], [-16.75217, 13.06984], [-16.75882, 13.07458], [-16.77226, 13.078], [-16.76652, 13.11165], [-16.76707, 13.12385], [-16.76904, 13.12731], [-16.77189, 13.12824], [-16.77386, 13.13314], [-16.77339, 13.14128], [-16.77747, 13.1507], [-16.78067, 13.15445], [-16.78515, 13.15317], [-16.78658, 13.15624], [-16.79108, 13.15877], [-16.78796, 13.16181], [-16.78355, 13.18646], [-16.78298, 13.21893], [-16.78625, 13.2499], [-16.79169, 13.2659], [-16.79628, 13.27006], [-16.80103, 13.26996], [-16.8071, 13.27582], [-16.80655, 13.28734], [-16.80294, 13.30123], [-16.8037, 13.3189], [-16.80734, 13.33114], [-16.81426, 13.33886], [-16.81234, 13.34098], [-16.81197, 13.34491], [-16.80869, 13.34618], [-16.80554, 13.34516], [-16.80062, 13.34998], [-16.79838, 13.35986], [-16.79626, 13.36216], [-16.79354, 13.37913], [-16.78513, 13.38107], [-16.76636, 13.38972], [-16.75409, 13.39888], [-16.73775, 13.41838], [-16.72428, 13.44374], [-16.71899, 13.44106], [-16.70725, 13.44128], [-16.70478, 13.43512], [-16.70476, 13.42811], [-16.69857, 13.42646], [-16.69764, 13.42834], [-16.69084, 13.42534], [-16.68956, 13.41875], [-16.68481, 13.41795], [-16.68359, 13.41515], [-16.67314, 13.40833], [-16.67136, 13.40885], [-16.66857, 13.40452], [-16.66567, 13.40422], [-16.66496, 13.39613], [-16.65948, 13.38447], [-16.64475, 13.39459], [-16.64506, 13.39968], [-16.63639, 13.40458]]]}}, {"type": "Feature", "properties": {"shapeID": "31243875B72482523363184", "shapeName": "Janjanbureh"}, "geometry": {"type": "Polygon", "coordinates": [[[-14.52782, 13.38429], [-14.52692, 13.36224], [-14.54649, 13.32135], [-14.58108, 13.36337], [-14.58473, 13.35921], [-14.59096, 13.35566], [-14.5993, 13.35411], [-14.61357, 13.3476], [-14.63224, 13.34376], [-14.66348, 13.34282], [-14.68214, 13.34658], [-14.69593, 13.35165], [-14.71938, 13.37442], [-14.73341, 13.37366], [-14.73552, 13.37573], [-14.73628, 13.38005], [-14.73484, 13.38648], [-14.7444, 13.39492], [-14.75561, 13.40964], [-14.76516, 13.4242], [-14.76879, 13.43512], [-14.81036, 13.4359], [-14.85421, 13.45272], [-14.89291, 13.44917], [-14.9049, 13.44917], [-14.91703, 13.452], [-14.93889, 13.4604], [-14.96256, 13.47793], [-14.99625, 13.48499], [-15.0134, 13.49301], [-15.0468, 13.52019], [-15.06669, 13.5412], [-15.07398, 13.55664], [-15.07657, 13.58457], [-15.11696, 13.58485], [-15.14246, 13.55921], [-15.15794, 13.55044], [-15.16431, 13.55014], [-15.16862, 13.546], [-15.1705, 13.5514], [-15.17373, 13.55251], [-15.17722, 13.55087], [-15.17919, 13.55473], [-15.18238, 13.55607], [-15.18678, 13.55443], [-15.18906, 13.55681], [-15.1924, 13.55606], [-15.19529, 13.55829], [-15.19863, 13.55843], [-15.2009, 13.55665], [-15.20288, 13.55858], [-15.20409, 13.55739], [-15.20637, 13.55828], [-15.21168, 13.55308], [-15.20773, 13.54981], [-15.20409, 13.54967], [-15.20423, 13.54402], [-15.2097, 13.54179], [-15.21531, 13.53525], [-15.22108, 13.53643], [-15.22017, 13.54445], [-15.22261, 13.54623], [-15.22943, 13.54355], [-15.23232, 13.54622], [-15.23718, 13.54711], [-15.23885, 13.54473], [-15.23824, 13.54132], [-15.24249, 13.54013], [-15.24552, 13.53671], [-15.24506, 13.5321], [-15.24263, 13.52943], [-15.24551, 13.52512], [-15.25143, 13.52452], [-15.25628, 13.52006], [-15.25597, 13.51709], [-15.2622, 13.51931], [-15.2625, 13.52094], [-15.25674, 13.52437], [-15.25705, 13.52808], [-15.2654, 13.53282], [-15.27041, 13.53074], [-15.26904, 13.52718], [-15.2751, 13.52049], [-15.27981, 13.52241], [-15.28315, 13.51825], [-15.28785, 13.51758], [-15.29165, 13.51891], [-15.29711, 13.51341], [-15.29528, 13.50955], [-15.29862, 13.5088], [-15.29983, 13.50464], [-15.30252, 13.50491], [-15.3097, 13.5122], [-15.31729, 13.51442], [-15.3384, 13.51514], [-15.35328, 13.52351], [-15.35997, 13.53152], [-15.36821, 13.55512], [-15.37188, 13.57561], [-15.37129, 13.58482], [-15.36962, 13.58676], [-15.36674, 13.58654], [-15.36753, 13.60674], [-15.3689, 13.6106], [-15.36755, 13.62114], [-15.35622, 13.66104], [-15.35122, 13.66929], [-15.34227, 13.67821], [-15.32801, 13.68729], [-15.31753, 13.68998], [-15.3072, 13.69014], [-15.30386, 13.68866], [-15.29595, 13.68006], [-15.28195, 13.66188], [-15.26797, 13.65536], [-15.25216, 13.64498], [-15.24061, 13.64083], [-15.21402, 13.63992], [-15.20599, 13.64227], [-15.19461, 13.65238], [-15.16303, 13.66822], [-15.15893, 13.67224], [-15.12583, 13.69312], [-15.11474, 13.69744], [-15.07069, 13.72085], [-15.0514, 13.72427], [-15.04729, 13.72308], [-15.04638, 13.72041], [-15.04076, 13.71699], [-15.02557, 13.71105], [-15.00445, 13.69583], [-14.98911, 13.69865], [-14.96419, 13.7086], [-14.95857, 13.70919], [-14.94763, 13.70488], [-14.90859, 13.70005], [-14.89781, 13.6941], [-14.89325, 13.68979], [-14.89189, 13.68296], [-14.89615, 13.66424], [-14.90633, 13.65734], [-14.91955, 13.65304], [-14.92502, 13.64591], [-14.92927, 13.64398], [-14.95084, 13.63998], [-14.95615, 13.6376], [-14.96861, 13.62617], [-14.97787, 13.61347], [-14.98137, 13.61466], [-14.98376, 13.61339], [-14.97438, 13.58703], [-14.96786, 13.57856], [-14.95692, 13.57321], [-14.93734, 13.57752], [-14.92677, 13.57588], [-14.91593, 13.57833], [-14.90667, 13.57728], [-14.88906, 13.56569], [-14.8795, 13.56242], [-14.86, 13.54845], [-14.85339, 13.55639], [-14.84534, 13.56173], [-14.82013, 13.56305], [-14.8092, 13.55918], [-14.79737, 13.54625], [-14.79206, 13.54476], [-14.7664, 13.54518], [-14.74713, 13.53566], [-14.73514, 13.53312], [-14.71434, 13.53622], [-14.70889, 13.52633], [-14.70436, 13.50947], [-14.68935, 13.49445], [-14.67844, 13.48092], [-14.65982, 13.44562], [-14.65164, 13.43373], [-14.64116, 13.43338], [-14.63205, 13.43782], [-14.62719, 13.44435], [-14.61942, 13.46416], [-14.61771, 13.48733], [-14.62705, 13.53242], [-14.62735, 13.53718], [-14.62506, 13.54482], [-14.61745, 13.55462], [-14.60727, 13.56158], [-14.59572, 13.56483], [-14.58889, 13.56497], [-14.57736, 13.56019], [-14.5719, 13.55603], [-14.56845, 13.53552], [-14.5808, 13.50317], [-14.58143, 13.49284], [-14.57612, 13.48689], [-14.57127, 13.4851], [-14.55534, 13.48344], [-14.5376, 13.47108], [-14.52228, 13.47165], [-14.51333, 13.46888], [-14.5067, 13.44362], [-14.50643, 13.42646], [-14.50509, 13.41606], [-14.50358, 13.41429], [-14.5046, 13.41202], [-14.50102, 13.40447], [-14.50085, 13.3939], [-14.49805, 13.3852], [-14.5052, 13.38141], [-14.52094, 13.3818], [-14.52213, 13.38053], [-14.52782, 13.38429]]]}}, {"type": "Feature", "properties": {"shapeID": "31243875B42421745591684", "shapeName": "Kanifing"}, "geometry": {"type": "Polygon", "coordinates": [[[-16.64241, 13.40201], [-16.64506, 13.39968], [-16.64475, 13.39459], [-16.65948, 13.38447], [-16.66496, 13.39613], [-16.66567, 13.40422], [-16.66857, 13.40452], [-16.67136, 13.40885], [-16.67314, 13.40833], [-16.68359, 13.41515], [-16.68481, 13.41795], [-16.68956, 13.41875], [-16.69084, 13.42534], [-16.69764, 13.42834], [-16.69857, 13.42646], [-16.70476, 13.42811], [-16.70478, 13.43512], [-16.70725, 13.44128], [-16.71899, 13.44106], [-16.72428, 13.44374], [-16.72315, 13.44902], [-16.71485, 13.45893], [-16.70746, 13.46071], [-16.70854, 13.46194], [-16.70038, 13.46743], [-16.69367, 13.47577], [-16.68067, 13.48204], [-16.6766, 13.48206], [-16.67119, 13.48465], [-16.6672, 13.48923], [-16.66156, 13.47597], [-16.65914, 13.47441], [-16.64209, 13.4742], [-16.62904, 13.46932], [-16.63174, 13.45662], [-16.634, 13.45385], [-16.64063, 13.45359], [-16.64336, 13.44931], [-16.64526, 13.44883], [-16.6468, 13.45038], [-16.6488, 13.44758], [-16.64952, 13.45107], [-16.65157, 13.44941], [-16.65151, 13.45118], [-16.65429, 13.4516], [-16.65453, 13.45001], [-16.66109, 13.44661], [-16.65735, 13.44519], [-16.65516, 13.44094], [-16.65785, 13.43201], [-16.65725, 13.42885], [-16.65434, 13.42901], [-16.65401, 13.42661], [-16.65623, 13.42557], [-16.65602, 13.42381], [-16.653, 13.42491], [-16.6528, 13.42343], [-16.64997, 13.42261], [-16.65441, 13.41958], [-16.65546, 13.41666], [-16.65277, 13.416], [-16.65153, 13.41341], [-16.64616, 13.41317], [-16.64606, 13.41113], [-16.64258, 13.41032], [-16.64107, 13.40759], [-16.63839, 13.40789], [-16.63528, 13.40387], [-16.64241, 13.40201]]]}}, {"type": "Feature", "properties": {"shapeID": "31243875B21899311231896", "shapeName": "Kerewan"}, "geometry": {"type": "MultiPolygon", "coordinates": [[[[-15.37597, 13.6132], [-15.37741, 13.56419], [-15.37683, 13.55676], [-15.37282, 13.54507], [-15.36179, 13.5268], [-15.35153, 13.51642], [-15.33938, 13.51105], [-15.31319, 13.50681], [-15.30711, 13.50339], [-15.30426, 13.49708], [-15.30744, 13.46161], [-15.31047, 13.45622], [-15.32013, 13.44906], [-15.34762, 13.43844], [-15.35559, 13.43825], [-15.35976, 13.44084], [-15.39165, 13.4511], [-15.41272, 13.46257], [-15.42431, 13.47388], [-15.43725, 13.4941], [-15.44409, 13.49975], [-15.4513, 13.50252], [-15.46003, 13.5025], [-15.47084, 13.50025], [-15.49037, 13.4926], [-15.50043, 13.49351], [-15.50802, 13.49795], [-15.5145, 13.5076], [-15.5221, 13.51315], [-15.52742, 13.51982], [-15.54451, 13.52368], [-15.56159, 13.52346], [-15.57827, 13.51618], [-15.59586, 13.4972], [-15.5985, 13.48884], [-15.60851, 13.47211], [-15.61288, 13.47303], [-15.62219, 13.48006], [-15.63532, 13.49423], [-15.64007, 13.49719], [-15.65355, 13.50179], [-15.67348, 13.50323], [-15.6803, 13.50228], [-15.70626, 13.49051], [-15.72679, 13.47197], [-15.7359, 13.46691], [-15.78762, 13.45677], [-15.78893, 13.4553], [-15.79692, 13.45528], [-15.8035, 13.45833], [-15.81662, 13.4594], [-15.84764, 13.4679], [-15.87319, 13.46288], [-15.89434, 13.45494], [-15.90556, 13.44847], [-15.91375, 13.45072], [-15.93333, 13.45244], [-15.95435, 13.44879], [-15.95757, 13.44963], [-15.95873, 13.4482], [-15.96691, 13.44688], [-15.98736, 13.44909], [-15.99482, 13.44581], [-16.01289, 13.44591], [-16.02293, 13.44373], [-16.04046, 13.44473], [-16.08335, 13.44115], [-16.11661, 13.44851], [-16.12832, 13.45454], [-16.13183, 13.46417], [-16.12874, 13.46704], [-16.12788, 13.47688], [-16.13581, 13.49382], [-16.12616, 13.49922], [-16.11958, 13.49961], [-16.1066, 13.49573], [-16.10259, 13.49718], [-16.09423, 13.50526], [-16.08562, 13.51986], [-16.08509, 13.52379], [-16.08914, 13.5311], [-16.1019, 13.52676], [-16.10612, 13.5296], [-16.09795, 13.54161], [-16.1015, 13.55714], [-16.09999, 13.56778], [-16.09544, 13.57048], [-16.09102, 13.56335], [-16.08791, 13.56301], [-16.08591, 13.56427], [-16.08356, 13.57035], [-16.08304, 13.57554], [-16.08892, 13.5823], [-16.09132, 13.58819], [-16.09133, 13.59015], [-16.08604, 13.59268], [-15.77041, 13.59326], [-15.66063, 13.59117], [-15.47025, 13.5903], [-15.46258, 13.64008], [-15.4218, 13.6402], [-15.41874, 13.64062], [-15.41737, 13.64258], [-15.41716, 13.64072], [-15.41431, 13.64207], [-15.41282, 13.63866], [-15.40818, 13.64125], [-15.40776, 13.64332], [-15.40565, 13.6427], [-15.40523, 13.64653], [-15.3992, 13.64375], [-15.40109, 13.63662], [-15.39824, 13.63507], [-15.39918, 13.63104], [-15.39548, 13.6295], [-15.37303, 13.62965], [-15.37597, 13.6132]]], [[[-16.12358, 13.59323], [-16.08814, 13.59303], [-16.09106, 13.59158], [-16.09214, 13.58926], [-16.09028, 13.58212], [-16.08496, 13.5766], [-16.0853, 13.57017], [-16.0871, 13.56551], [-16.08947, 13.56389], [-16.09168, 13.56871], [-16.09517, 13.57173], [-16.09827, 13.57172], [-16.10209, 13.56688], [-16.10294, 13.55356], [-16.09905, 13.5425], [-16.10614, 13.53496], [-16.1074, 13.5312], [-16.10464, 13.52585], [-16.09715, 13.52571], [-16.09333, 13.52823], [-16.08912, 13.52699], [-16.08819, 13.52289], [-16.08998, 13.51609], [-16.09433, 13.50865], [-16.10397, 13.4995], [-16.10871, 13.4984], [-16.12042, 13.50211], [-16.13027, 13.5001], [-16.13464, 13.49757], [-16.13789, 13.49077], [-16.13072, 13.47883], [-16.13049, 13.46936], [-16.13832, 13.46405], [-16.14594, 13.45401], [-16.1811, 13.43884], [-16.18544, 13.4314], [-16.20803, 13.41557], [-16.21143, 13.40749], [-16.24369, 13.3812], [-16.24528, 13.37851], [-16.26415, 13.36546], [-16.28304, 13.35777], [-16.30008, 13.34562], [-16.30143, 13.34249], [-16.31008, 13.33753], [-16.31555, 13.33817], [-16.32061, 13.3444], [-16.33545, 13.34723], [-16.3548, 13.33975], [-16.38214, 13.33503], [-16.39056, 13.33118], [-16.40743, 13.33042], [-16.4113, 13.32816], [-16.41724, 13.33081], [-16.44107, 13.34922], [-16.45066, 13.35162], [-16.45502, 13.35472], [-16.47512, 13.35974], [-16.48333, 13.35969], [-16.49567, 13.3623], [-16.50753, 13.36201], [-16.50777, 13.36401], [-16.49846, 13.37189], [-16.49645, 13.37882], [-16.48444, 13.39107], [-16.48261, 13.39108], [-16.48286, 13.39465], [-16.48014, 13.39779], [-16.47997, 13.40673], [-16.47817, 13.41143], [-16.47869, 13.42125], [-16.47736, 13.42372], [-16.48492, 13.43701], [-16.48464, 13.43973], [-16.48055, 13.43918], [-16.48611, 13.44816], [-16.49937, 13.46008], [-16.501, 13.46351], [-16.50965, 13.46889], [-16.51768, 13.46869], [-16.5234, 13.47252], [-16.5288, 13.47149], [-16.52838, 13.47478], [-16.52999, 13.47519], [-16.53001, 13.47777], [-16.53265, 13.47947], [-16.54463, 13.48054], [-16.54465, 13.48297], [-16.54979, 13.48722], [-16.54936, 13.48865], [-16.54323, 13.48984], [-16.54369, 13.49248], [-16.53313, 13.50898], [-16.52714, 13.53117], [-16.5286, 13.55439], [-16.5363, 13.57064], [-16.54854, 13.58721], [-16.54565, 13.59338], [-16.153, 13.59309], [-16.14884, 13.60205], [-16.13818, 13.60386], [-16.13328, 13.60242], [-16.12358, 13.59323]]]]}}, {"type": "Feature", "properties": {"shapeID": "31243875B86283726287100", "shapeName": "Kuntaur"}, "geometry": {"type": "Polygon", "coordinates": [[[-15.39548, 13.6295], [-15.39918, 13.63104], [-15.39824, 13.63507], [-15.40109, 13.63662], [-15.3992, 13.64375], [-15.40523, 13.64653], [-15.40565, 13.6427], [-15.40776, 13.64332], [-15.40818, 13.64125], [-15.41282, 13.63866], [-15.41431, 13.64207], [-15.41716, 13.64072], [-15.41737, 13.64258], [-15.41874, 13.64062], [-15.4218, 13.6402], [-15.46258, 13.64008], [-15.44977, 13.68209], [-15.41349, 13.7474], [-15.40547, 13.75692], [-15.39413, 13.76659], [-15.37285, 13.78011], [-15.34015, 13.78909], [-15.29454, 13.79055], [-15.27466, 13.78365], [-15.26461, 13.77777], [-15.24858, 13.76565], [-15.23789, 13.74996], [-15.23292, 13.74862], [-15.21749, 13.74966], [-15.20054, 13.76233], [-15.13894, 13.7943], [-15.06893, 13.82324], [-15.00875, 13.8072], [-14.98833, 13.79682], [-14.962, 13.7867], [-14.94465, 13.79314], [-14.92533, 13.79585], [-14.91323, 13.79658], [-14.88732, 13.79284], [-14.8739, 13.78786], [-14.84867, 13.77173], [-14.84217, 13.77044], [-14.81422, 13.75616], [-14.80451, 13.74555], [-14.80091, 13.73339], [-14.80194, 13.71615], [-14.8044, 13.70555], [-14.79641, 13.66674], [-14.76009, 13.63794], [-14.71755, 13.61691], [-14.66086, 13.64285], [-14.63946, 13.64932], [-14.58995, 13.65539], [-14.55475, 13.65385], [-14.53958, 13.64972], [-14.51909, 13.63682], [-14.50358, 13.62159], [-14.49191, 13.6056], [-14.48948, 13.59407], [-14.47689, 13.56775], [-14.46734, 13.54236], [-14.44686, 13.52832], [-14.45004, 13.52678], [-14.45193, 13.52], [-14.46156, 13.51048], [-14.46836, 13.50738], [-14.47227, 13.50117], [-14.47921, 13.49921], [-14.48254, 13.49639], [-14.47463, 13.48026], [-14.47456, 13.47693], [-14.47703, 13.4727], [-14.48989, 13.4682], [-14.49884, 13.4685], [-14.50275, 13.46597], [-14.5071, 13.45877], [-14.50897, 13.46047], [-14.51083, 13.46824], [-14.514, 13.4715], [-14.52252, 13.47321], [-14.53797, 13.4731], [-14.55427, 13.48514], [-14.569, 13.48715], [-14.57716, 13.49034], [-14.57989, 13.49459], [-14.57959, 13.50307], [-14.57495, 13.51592], [-14.56501, 13.53563], [-14.57047, 13.55684], [-14.57566, 13.56123], [-14.58966, 13.56662], [-14.59646, 13.56635], [-14.61192, 13.56171], [-14.62451, 13.54915], [-14.62872, 13.5411], [-14.62832, 13.51891], [-14.62544, 13.51042], [-14.62065, 13.48278], [-14.62081, 13.46822], [-14.63147, 13.44414], [-14.6426, 13.43595], [-14.64852, 13.43483], [-14.65155, 13.43611], [-14.65602, 13.44163], [-14.66855, 13.46878], [-14.67705, 13.48307], [-14.68981, 13.49885], [-14.70265, 13.51017], [-14.70322, 13.52077], [-14.71295, 13.53697], [-14.74141, 13.53573], [-14.7648, 13.54692], [-14.79435, 13.54645], [-14.81066, 13.563], [-14.82482, 13.5681], [-14.83349, 13.56881], [-14.84281, 13.56634], [-14.85842, 13.55575], [-14.8629, 13.55477], [-14.87763, 13.56354], [-14.88933, 13.56778], [-14.90305, 13.5774], [-14.91028, 13.58023], [-14.92928, 13.58172], [-14.93376, 13.58031], [-14.96165, 13.57947], [-14.96757, 13.58314], [-14.97292, 13.59346], [-14.97479, 13.60152], [-14.97523, 13.61156], [-14.97335, 13.61792], [-14.96316, 13.6283], [-14.95651, 13.63268], [-14.94292, 13.63834], [-14.91951, 13.64215], [-14.89847, 13.65663], [-14.89225, 13.66581], [-14.88834, 13.68419], [-14.88863, 13.68885], [-14.89274, 13.69783], [-14.90098, 13.70264], [-14.90821, 13.70476], [-14.9197, 13.70512], [-14.92592, 13.70724], [-14.93199, 13.70993], [-14.93401, 13.71261], [-14.95743, 13.71516], [-14.98563, 13.70513], [-15.00302, 13.70297], [-15.0317, 13.71552], [-15.05102, 13.72592], [-15.07132, 13.72269], [-15.10335, 13.70967], [-15.11995, 13.69955], [-15.13428, 13.69355], [-15.16058, 13.67742], [-15.16116, 13.67074], [-15.16312, 13.66859], [-15.19636, 13.652], [-15.19763, 13.64985], [-15.20168, 13.65279], [-15.20894, 13.64512], [-15.21285, 13.64367], [-15.24434, 13.64612], [-15.27859, 13.66902], [-15.29076, 13.68315], [-15.30244, 13.69198], [-15.31291, 13.69424], [-15.32622, 13.69226], [-15.3371, 13.68739], [-15.34849, 13.67911], [-15.35683, 13.66938], [-15.36773, 13.64607], [-15.37303, 13.62965], [-15.39548, 13.6295]]]}}, {"type": "Feature", "properties": {"shapeID": "31243875B75097494588605", "shapeName": "Mansakonko"}, "geometry": {"type": "Polygon", "coordinates": [[[-15.8101, 13.24249], [-15.80998, 13.25173], [-15.80566, 13.25541], [-15.80746, 13.25892], [-15.82528, 13.26062], [-15.82916, 13.25768], [-15.82914, 13.25314], [-15.83154, 13.25298], [-15.83843, 13.25413], [-15.84413, 13.25924], [-15.84816, 13.25513], [-15.8504, 13.25482], [-15.85267, 13.262], [-15.8503, 13.26714], [-15.8527, 13.27094], [-15.85929, 13.27121], [-15.86122, 13.26681], [-15.86811, 13.26825], [-15.86916, 13.26928], [-15.86604, 13.27464], [-15.86875, 13.27888], [-15.87504, 13.2812], [-15.87773, 13.28046], [-15.87952, 13.27664], [-15.8783, 13.27108], [-15.88173, 13.26799], [-15.88846, 13.26562], [-15.89535, 13.26765], [-15.89729, 13.26559], [-15.89697, 13.2606], [-15.90055, 13.25736], [-15.90953, 13.25865], [-15.91401, 13.25673], [-15.91629, 13.26508], [-15.91361, 13.26729], [-15.91361, 13.26978], [-15.91888, 13.27724], [-15.92502, 13.27765], [-15.92515, 13.27172], [-15.92739, 13.27054], [-15.93307, 13.26964], [-15.93742, 13.27167], [-15.94266, 13.27121], [-15.94763, 13.2816], [-15.95274, 13.28598], [-15.95142, 13.29288], [-15.95581, 13.29449], [-15.96123, 13.29319], [-15.9657, 13.28841], [-15.96757, 13.28895], [-15.97528, 13.29882], [-15.98406, 13.29622], [-15.99118, 13.29802], [-15.9938, 13.29728], [-15.99657, 13.28975], [-15.99956, 13.28718], [-16.00519, 13.29137], [-16.00577, 13.29613], [-16.01157, 13.29684], [-16.0166, 13.29242], [-16.01789, 13.28765], [-16.02611, 13.28286], [-16.03094, 13.27606], [-16.04535, 13.27636], [-16.0517, 13.27432], [-16.0597, 13.26403], [-16.06419, 13.26328], [-16.06775, 13.26509], [-16.06945, 13.2682], [-16.06911, 13.27645], [-16.07061, 13.27846], [-16.07586, 13.28036], [-16.0839, 13.27959], [-16.08987, 13.27462], [-16.09095, 13.26692], [-16.08906, 13.26125], [-16.08418, 13.25815], [-16.07706, 13.25635], [-16.07649, 13.25434], [-16.08171, 13.2501], [-16.09199, 13.24841], [-16.09593, 13.24949], [-16.1147, 13.26462], [-16.12636, 13.27794], [-16.12506, 13.2796], [-16.11646, 13.28019], [-16.11254, 13.28222], [-16.11086, 13.28442], [-16.1107, 13.28992], [-16.11408, 13.29284], [-16.12083, 13.29501], [-16.13917, 13.29603], [-16.15483, 13.28478], [-16.16972, 13.26941], [-16.19231, 13.25996], [-16.20367, 13.24946], [-16.20875, 13.25585], [-16.20957, 13.26886], [-16.20458, 13.28244], [-16.20206, 13.30206], [-16.21148, 13.31612], [-16.22126, 13.32579], [-16.22392, 13.33384], [-16.2232, 13.3387], [-16.21596, 13.35064], [-16.21302, 13.36128], [-16.20801, 13.37065], [-16.19683, 13.37932], [-16.18826, 13.38861], [-16.17166, 13.4006], [-16.15082, 13.42543], [-16.14618, 13.43443], [-16.14167, 13.43024], [-16.1261, 13.42243], [-16.07324, 13.40828], [-16.04649, 13.41224], [-16.04164, 13.41445], [-16.03847, 13.41887], [-16.03304, 13.41889], [-16.02669, 13.42166], [-15.96286, 13.42292], [-15.94677, 13.42555], [-15.94023, 13.42841], [-15.93756, 13.42531], [-15.92514, 13.42792], [-15.9148, 13.42546], [-15.90971, 13.42578], [-15.90597, 13.42726], [-15.90374, 13.43078], [-15.89431, 13.43301], [-15.88172, 13.43189], [-15.87904, 13.43366], [-15.87696, 13.4385], [-15.87276, 13.43851], [-15.86768, 13.44146], [-15.86725, 13.44528], [-15.86292, 13.44962], [-15.84524, 13.4488], [-15.83654, 13.44428], [-15.81405, 13.43783], [-15.81031, 13.43814], [-15.80971, 13.44004], [-15.80207, 13.43992], [-15.80073, 13.44139], [-15.7886, 13.44084], [-15.75731, 13.44527], [-15.73815, 13.45119], [-15.73306, 13.45076], [-15.71256, 13.45639], [-15.70118, 13.4576], [-15.6919, 13.46283], [-15.67713, 13.48222], [-15.66741, 13.48767], [-15.62941, 13.45258], [-15.61637, 13.448], [-15.60723, 13.44846], [-15.60107, 13.45046], [-15.59227, 13.45656], [-15.5863, 13.46493], [-15.58377, 13.4719], [-15.57905, 13.50108], [-15.57263, 13.51231], [-15.56964, 13.51393], [-15.55526, 13.51499], [-15.53533, 13.51225], [-15.53053, 13.50977], [-15.51732, 13.49777], [-15.50442, 13.49003], [-15.49632, 13.48741], [-15.48149, 13.48861], [-15.46383, 13.49649], [-15.45064, 13.49534], [-15.44299, 13.48927], [-15.43007, 13.4714], [-15.40862, 13.45414], [-15.38703, 13.44383], [-15.35002, 13.43458], [-15.34119, 13.43679], [-15.31529, 13.44767], [-15.30676, 13.45516], [-15.30362, 13.46074], [-15.29971, 13.48742], [-15.30002, 13.49726], [-15.30252, 13.50491], [-15.29983, 13.50464], [-15.29862, 13.5088], [-15.29528, 13.50955], [-15.29711, 13.51341], [-15.29165, 13.51891], [-15.28785, 13.51758], [-15.28315, 13.51825], [-15.27981, 13.52241], [-15.2751, 13.52049], [-15.26904, 13.52718], [-15.27041, 13.53074], [-15.2654, 13.53282], [-15.25705, 13.52808], [-15.25674, 13.52437], [-15.2625, 13.52094], [-15.2622, 13.51931], [-15.25597, 13.51709], [-15.25628, 13.52006], [-15.25143, 13.52452], [-15.24551, 13.52512], [-15.24263, 13.52943], [-15.24506, 13.5321], [-15.24552, 13.53671], [-15.24249, 13.54013], [-15.23824, 13.54132], [-15.23885, 13.54473], [-15.23718, 13.54711], [-15.23232, 13.54622], [-15.22943, 13.54355], [-15.22261, 13.54623], [-15.22017, 13.54445], [-15.22108, 13.53643], [-15.21531, 13.53525], [-15.2097, 13.54179], [-15.20423, 13.54402], [-15.20409, 13.54967], [-15.20773, 13.54981], [-15.21168, 13.55308], [-15.20637, 13.55828], [-15.20409, 13.55739], [-15.20288, 13.55858], [-15.2009, 13.55665], [-15.19863, 13.55843], [-15.19529, 13.55829], [-15.1924, 13.55606], [-15.18906, 13.55681], [-15.18678, 13.55443], [-15.18238, 13.55607], [-15.17919, 13.55473], [-15.17722, 13.55087], [-15.17373, 13.55251], [-15.1705, 13.5514], [-15.16862, 13.546], [-15.16943, 13.54364], [-15.21063, 13.52688], [-15.20842, 13.50886], [-15.2078, 13.47233], [-15.20942, 13.46947], [-15.21089, 13.44786], [-15.21612, 13.43568], [-15.21835, 13.42586], [-15.22972, 13.40554], [-15.24782, 13.38529], [-15.26443, 13.37289], [-15.28089, 13.36436], [-15.31621, 13.35142], [-15.33537, 13.34707], [-15.35049, 13.34492], [-15.36651, 13.34519], [-15.39977, 13.35233], [-15.4143, 13.35788], [-15.46431, 13.38247], [-15.46903, 13.38182], [-15.47893, 13.38395], [-15.48249, 13.39046], [-15.51665, 13.39573], [-15.52729, 13.38695], [-15.53073, 13.38141], [-15.53674, 13.37953], [-15.56209, 13.3617], [-15.59201, 13.34917], [-15.62509, 13.34542], [-15.64426, 13.34611], [-15.66014, 13.35134], [-15.68723, 13.36488], [-15.71615, 13.35544], [-15.7377, 13.35025], [-15.77047, 13.34634], [-15.79368, 13.34744], [-15.80339, 13.34272], [-15.80217, 13.24121], [-15.8101, 13.24249]]]}}]}